{"fetched_at":"2026-03-29T02:12:04Z","count":15717,"tles":[{"name":"EUTELSAT 53A","line1":"1 40277U 14064A   26086.98479954  .00000000  00000+0  00000+0 0  9990","line2":"2 40277   0.0232 191.6703 0001361 210.9150 190.3510  1.00270850 40753","category":"Other"}]}